NORAD_CAT_ID,OBJECT_NAME,OBJECT_TYPE,EPOCH,MEAN_MOTION,ECCENTRICITY,INCLINATION,RA_OF_ASC_NODE,ARG_OF_PERICENTER,MEAN_ANOMALY,BSTAR,MEAN_MOTION_DOT,MEAN_MOTION_DDOT,TLE_LINE0,TLE_LINE1,TLE_LINE2,SEMIMAJOR_AXIS,PERIOD,APOGEE,PERIGEE,DECAYED
53702.0,STARLINK-4724,PAYLOAD,2023-05-17 08:35:17,15.08838781,0.0001077,53.2154,160.8918,82.114,277.9974,3.9016e-05,3.33e-06,0.0,0 STARLINK-4724,1 53702U 22107C   23137.35784218  .00000333  00000-0  39016-4 0  9995,2 53702  53.2154 160.8918 0001077  82.1140 277.9974 15.08838781 39223,6917.884,95.438,540.494,539.004,0.0
53702.0,STARLINK-4724,PAYLOAD,2023-05-18 11:36:51,15.08836963,0.0001077,53.2157,155.8375,87.2674,272.8441,3.5069e-05,2.7e-06,0.0,0 STARLINK-4724,1 53702U 22107C   23138.48392505  .00000270  00000-0  35069-4 0  9998,2 53702  53.2157 155.8375 0001077  87.2674 272.8441 15.08836963 39396,6917.89,95.438,540.5,539.01,0.0
53702.0,STARLINK-4724,PAYLOAD,2023-05-18 17:58:23,15.08835783,0.000107,53.2158,154.648,86.5216,273.5899,3.3702e-05,2.49e-06,0.0,0 STARLINK-4724,1 53702U 22107C   23138.74888625  .00000249  00000-0  33702-4 0  9998,2 53702  53.2158 154.6480 0001070  86.5216 273.5899 15.08835783 40215,6917.893,95.438,540.498,539.018,0.0
53702.0,STARLINK-4724,PAYLOAD,2023-05-19 17:49:10,15.08837979,0.0001055,53.2156,150.1873,85.1714,274.9399,3.9372e-05,3.39e-06,0.0,0 STARLINK-4724,1 53702U 22107C   23139.74248602  .00000339  00000-0  39372-4 0  9993,2 53702  53.2156 150.1873 0001055  85.1714 274.9399 15.08837979 39588,6917.887,95.438,540.481,539.022,0.0
53702.0,STARLINK-4724,PAYLOAD,2023-05-20 17:39:57,15.08843091,0.00011,53.216,145.7269,84.2128,275.8989,7.7395e-05,9.44e-06,0.0,0 STARLINK-4724,1 53702U 22107C   23140.73608279  .00000944  00000-0  77395-4 0  9993,2 53702  53.2160 145.7269 0001100  84.2128 275.8989 15.08843091 40514,6917.871,95.437,540.497,538.975,0.0
53702.0,STARLINK-4724,PAYLOAD,2023-05-21 09:33:48,15.08846818,0.00011,53.2157,142.7533,84.0271,276.0847,9.6323e-05,1.246e-05,0.0,0 STARLINK-4724,1 53702U 22107C   23141.39847858  .00001246  00000-0  96323-4 0  9992,2 53702  53.2157 142.7533 0001100  84.0271 276.0847 15.08846818 39837,6917.86,95.437,540.486,538.964,0.0
53702.0,STARLINK-4724,PAYLOAD,2023-05-21 17:30:44,15.08842046,0.000106,53.2153,141.2666,83.0146,277.0967,4.9166e-05,4.95e-06,0.0,0 STARLINK-4724,1 53702U 22107C   23141.72968243  .00000495  00000-0  49166-4 0  9999,2 53702  53.2153 141.2666 0001060  83.0146 277.0967 15.08842046 39887,6917.874,95.437,540.472,539.006,0.0
53702.0,STARLINK-4724,PAYLOAD,2023-05-22 09:24:36,15.08837085,0.0001109,53.2151,138.2933,84.3731,275.7388,-1.6023e-06,-3.13e-06,0.0,0 STARLINK-4724,1 53702U 22107C   23142.39208843 -.00000313  00000-0 -16023-5 0  9994,2 53702  53.2151 138.2933 0001109  84.3731 275.7388 15.08837085 39986,6917.889,95.438,540.521,538.987,0.0
53702.0,STARLINK-4724,PAYLOAD,2023-05-22 17:21:31,15.08840021,0.0001101,53.215,136.8066,84.1757,275.936,1.744e-05,-1e-07,0.0,0 STARLINK-4724,1 53702U 22107C   23142.72328617 -.00000010  00000-0  17440-4 0  9999,2 53702  53.2150 136.8066 0001101  84.1757 275.9360 15.08840021 40814,6917.88,95.438,540.507,538.984,0.0
53702.0,STARLINK-4724,PAYLOAD,2023-05-23 09:15:23,15.08842061,0.0001176,53.2158,133.8319,92.4285,267.6842,5.1947e-05,5.39e-06,0.0,0 STARLINK-4724,1 53702U 22107C   23143.38568303  .00000539  00000-0  51947-4 0  9995,2 53702  53.2158 133.8319 0001176  92.4285 267.6842 15.08842061 40134,6917.874,95.437,540.553,538.926,0.0
53702.0,STARLINK-4724,PAYLOAD,2023-05-24 09:06:10,15.08835428,0.0001087,53.2158,129.371,90.2415,269.8702,5.7118e-05,6.21e-06,0.0,0 STARLINK-4724,1 53702U 22107C   23144.37928915  .00000621  00000-0  57118-4 0  9992,2 53702  53.2158 129.3710 0001087  90.2415 269.8702 15.08835428 40285,6917.894,95.438,540.511,539.007,0.0
53702.0,STARLINK-4724,PAYLOAD,2023-05-26 04:01:35,15.08834303,0.00011,53.2158,121.3429,92.605,267.5068,2.2387e-05,6.8e-07,0.0,0 STARLINK-4724,1 53702U 22107C   23146.16777503  .00000068  00000-0  22387-4 0  9991,2 53702  53.2158 121.3429 0001100  92.6050 267.5068 15.08834303 40552,6917.898,95.438,540.524,539.002,0.0
53702.0,STARLINK-4724,PAYLOAD,2023-05-26 05:36:58,15.08835122,0.0001107,53.2158,121.0456,92.7713,267.3405,2.8282e-05,1.62e-06,0.0,0 STARLINK-4724,1 53702U 22107C   23146.23401452  .00000162  00000-0  28282-4 0  9991,2 53702  53.2158 121.0456 0001107  92.7713 267.3405 15.08835122 41344,6917.895,95.438,540.526,538.994,0.0
53702.0,STARLINK-4724,PAYLOAD,2023-05-27 07:03:09,15.08836294,0.0001113,53.2158,116.2877,91.935,268.1769,3.1762e-05,2.18e-06,0.0,0 STARLINK-4724,1 53702U 22107C   23147.29385729  .00000218  00000-0  31762-4 0  9995,2 53702  53.2158 116.2877 0001113  91.9350 268.1769 15.08836294 40726,6917.892,95.438,540.527,538.987,0.0
53702.0,STARLINK-4724,PAYLOAD,2023-05-27 15:00:04,15.0883752,0.0001105,53.2159,114.8007,89.9692,270.1426,5.0321e-05,5.13e-06,0.0,0 STARLINK-4724,1 53702U 22107C   23147.62505668  .00000513  00000-0  50321-4 0  9998,2 53702  53.2159 114.8007 0001105  89.9692 270.1426 15.08837520 41551,6917.888,95.438,540.517,538.989,0.0
53702.0,STARLINK-4724,PAYLOAD,2023-05-28 05:18:32,15.08842539,0.0001172,53.2164,112.1243,89.2414,270.8713,0.00010238,1.342e-05,0.0,0 STARLINK-4724,1 53702U 22107C   23148.22121265  .00001342  00000-0  10238-3 0  9995,2 53702  53.2164 112.1243 0001172  89.2414 270.8713 15.08842539 40864,6917.873,95.437,540.548,538.927,0.0
53702.0,STARLINK-4724,PAYLOAD,2023-05-28 21:12:24,15.08842114,0.0001181,53.2166,109.1513,87.6567,272.4561,6.9253e-05,8.15e-06,0.0,0 STARLINK-4724,1 53702U 22107C   23148.88361395  .00000815  00000-0  69253-4 0  9993,2 53702  53.2166 109.1513 0001181  87.6567 272.4561 15.08842114 41749,6917.874,95.437,540.556,538.922,0.0
53702.0,STARLINK-4724,PAYLOAD,2023-05-29 06:44:42,15.08846648,0.0001251,53.2166,107.3664,87.1994,272.9142,0.00010513,1.386e-05,0.0,0 STARLINK-4724,1 53702U 22107C   23149.28104902  .00001386  00000-0  10513-3 0  9995,2 53702  53.2166 107.3664 0001251  87.1994 272.9142 15.08846648 41020,6917.86,95.437,540.59,538.86,0.0
53702.0,STARLINK-4724,PAYLOAD,2023-05-30 03:24:44,15.08836885,0.0001281,53.217,103.5002,91.1043,269.0096,-5.9818e-05,-1.24e-05,0.0,0 STARLINK-4724,1 53702U 22107C   23150.14217938 -.00001240  00000-0 -59818-4 0  9999,2 53702  53.2170 103.5002 0001281  91.1043 269.0096 15.08836885 41153,6917.89,95.438,540.641,538.869,0.0
53702.0,STARLINK-4724,PAYLOAD,2023-05-31 03:15:30,15.08843187,0.0001304,53.2173,99.0401,92.5227,267.5915,7.2278e-06,-1.73e-06,0.0,0 STARLINK-4724,1 53702U 22107C   23151.13577429 -.00000173  00000-0  72278-5 0  9992,2 53702  53.2173  99.0401 0001304  92.5227 267.5915 15.08843187 41306,6917.871,95.437,540.638,538.834,0.0
53702.0,STARLINK-4724,PAYLOAD,2023-05-31 20:44:45,15.0882431,0.0001172,53.2171,95.7707,101.2819,258.8305,0.00020938,3.045e-05,0.0,0 STARLINK-4724,1 53702U 22107C   23151.86441815  .00003045  00000-0  20938-3 0  9995,2 53702  53.2171  95.7707 0001172 101.2819 258.8305 15.08824310 42195,6917.928,95.439,540.604,538.983,0.0
53702.0,STARLINK-4724,PAYLOAD,2023-06-01 01:30:55,15.08820686,0.0001203,53.2173,94.8785,101.379,258.7337,0.00029057,4.337e-05,0.0,0 STARLINK-4724,1 53702U 22107C   23152.06313880  .00004337  00000-0  29057-3 0  9994,2 53702  53.2173  94.8785 0001203 101.3790 258.7337 15.08820686 41440,6917.939,95.439,540.637,538.972,0.0
53702.0,STARLINK-4724,PAYLOAD,2023-06-01 03:06:18,15.08824142,0.0001214,53.2173,94.5814,101.0491,259.0637,0.0002962,4.427e-05,0.0,0 STARLINK-4724,1 53702U 22107C   23152.12937747  .00004427  00000-0  29620-3 0  9991,2 53702  53.2173  94.5814 0001214 101.0491 259.0637 15.08824142 42233,6917.929,95.439,540.634,538.954,0.0
53702.0,STARLINK-4724,PAYLOAD,2023-06-02 02:57:05,15.08837176,0.0001144,53.2167,90.1204,97.1691,262.9431,3.5409e-05,2.76e-06,0.0,0 STARLINK-4724,1 53702U 22107C   23153.12298147  .00000276  00000-0  35409-4 0  9997,2 53702  53.2167  90.1204 0001144  97.1691 262.9431 15.08837176 41606,6917.889,95.438,540.545,538.963,0.0
53702.0,STARLINK-4724,PAYLOAD,2023-06-02 20:26:20,15.08836929,0.0001173,53.2164,86.85,95.2807,264.8319,-3.5868e-05,-8.59e-06,0.0,0 STARLINK-4724,1 53702U 22107C   23153.85162672 -.00000859  00000-0 -35868-4 0  9998,2 53702  53.2164  86.8500 0001173  95.2807 264.8319 15.08836929 42493,6917.89,95.438,540.566,538.943,0.0
53702.0,STARLINK-4724,PAYLOAD,2023-06-03 04:23:15,15.088453,0.0001318,53.2165,85.3629,99.0491,261.065,2.3837e-06,-2.5e-06,0.0,0 STARLINK-4724,1 53702U 22107C   23154.18282037 -.00000250  00000-0  23837-5 0  9991,2 53702  53.2165  85.3629 0001318  99.0491 261.0650 15.08845300 41761,6917.864,95.437,540.641,538.817,0.0
53702.0,STARLINK-4724,PAYLOAD,2023-06-03 18:41:44,15.08836058,0.0001196,53.2164,82.6867,96.1654,263.9475,4.6079e-05,4.46e-06,0.0,0 STARLINK-4724,1 53702U 22107C   23154.77898576  .00000446  00000-0  46079-4 0  9995,2 53702  53.2164  82.6867 0001196  96.1654 263.9475 15.08836058 41853,6917.892,95.438,540.585,538.93,0.0
53702.0,STARLINK-4724,PAYLOAD,2023-06-04 04:14:02,15.08842976,0.0001198,53.2168,80.9023,90.8943,269.2186,9.5254e-05,1.229e-05,0.0,0 STARLINK-4724,1 53702U 22107C   23155.17642092  .00001229  00000-0  95254-4 0  9999,2 53702  53.2168  80.9023 0001198  90.8943 269.2186 15.08842976 41917,6917.871,95.437,540.565,538.908,0.0
53702.0,STARLINK-4724,PAYLOAD,2023-06-04 18:32:31,15.08872281,0.0001128,53.217,78.226,95.3208,264.7913,-0.00041203,-6.845e-05,0.0,0 STARLINK-4724,1 53702U 22107C   23155.77258527 -.00006845  00000-0 -41203-3 0  9996,2 53702  53.2170  78.2260 0001128  95.3208 264.7913 15.08872281 42786,6917.782,95.436,540.427,538.866,0.0
53702.0,STARLINK-4724,PAYLOAD,2023-06-05 12:01:46,15.08836828,0.0001378,53.2175,74.9546,82.6258,277.4891,1.1914e-05,-9.8e-07,0.0,0 STARLINK-4724,1 53702U 22107C   23156.50122890 -.00000098  00000-0  11914-4 0  9991,2 53702  53.2175  74.9546 0001378  82.6258 277.4891 15.08836828 42897,6917.89,95.438,540.708,538.802,0.0
